{
  "type": "FeatureCollection",
  "features": [
    {
      "type": "Feature",
      "id": "POT-B001",
      "geometry": {
        "type": "Polygon",
        "coordinates": [
          [
            [
              367906.4625,
              4779101.913
            ],
            [
              367906.5325,
              4779098.813
            ],
            [
              367905.662,
              4779098.733
            ],
            [
              367900.0725,
              4779098.2325
            ],
            [
              367899.982,
              4779101.433
            ],
            [
              367899.802,
              4779108.033
            ],
            [
              367899.702,
              4779111.953
            ],
            [
              367900.652,
              4779111.973
            ],
            [
              367906.2225,
              4779112.113
            ],
            [
              367906.3125,
              4779108.033
            ],
            [
              367906.4625,
              4779101.913
            ]
          ]
        ]
      },
      "properties": {
        "id": "POT-B001",
        "sector": "POT-S04",
        "source_body": "8093001UN6789S/surface-5"
      }
    },
    {
      "type": "Feature",
      "id": "POT-B002",
      "geometry": {
        "type": "Polygon",
        "coordinates": [
          [
            [
              367910.5725,
              4779099.173
            ],
            [
              367910.9325,
              4779100.933
            ],
            [
              367910.0425,
              4779101.183
            ],
            [
              367910.4225,
              4779103.983
            ],
            [
              367908.9825,
              4779104.233
            ],
            [
              367910.0225,
              4779108.253
            ],
            [
              367910.1525,
              4779108.753
            ],
            [
              367925.7125,
              4779104.413
            ],
            [
              367919.8525,
              4779084.8225
            ],
            [
              367917.8725,
              4779084.8225
            ],
            [
              367909.182,
              4779084.7925
            ],
            [
              367909.1825,
              4779086.4825
            ],
            [
              367909.1825,
              4779092.393
            ],
            [
              367912.8625,
              4779092.433
            ],
            [
              367912.4625,
              4779097.473
            ],
            [
              367910.3225,
              4779097.943
            ],
            [
              367910.5725,
              4779099.173
            ]
          ]
        ]
      },
      "properties": {
        "id": "POT-B002",
        "sector": "POT-S04",
        "source_body": "8093003UN6789S/surface-1"
      }
    },
    {
      "type": "Feature",
      "id": "POT-B003",
      "geometry": {
        "type": "Polygon",
        "coordinates": [
          [
            [
              367903.012,
              4779091.72
            ],
            [
              367906.523,
              4779091.72
            ],
            [
              367906.5125,
              4779091.2665
            ],
            [
              367906.4025,
              4779086.5065
            ],
            [
              367906.3705,
              4779086.066
            ],
            [
              367906.3535,
              4779085.83
            ],
            [
              367905.992,
              4779085.823
            ],
            [
              367900.075,
              4779085.708
            ],
            [
              367900.076,
              4779085.98
            ],
            [
              367900.0785,
              4779086.557
            ],
            [
              367900.095,
              4779091.183
            ],
            [
              367900.097,
              4779091.72
            ],
            [
              367903.012,
              4779091.72
            ]
          ]
        ]
      },
      "properties": {
        "id": "POT-B003",
        "sector": "POT-S04",
        "source_body": "8093004UN6789S/surface-1"
      }
    },
    {
      "type": "Feature",
      "id": "POT-B004",
      "geometry": {
        "type": "Polygon",
        "coordinates": [
          [
            [
              367940.023,
              4779113.1925
            ],
            [
              367948.983,
              4779116.3525
            ],
            [
              367951.523,
              4779109.3225
            ],
            [
              367948.273,
              4779107.1025
            ],
            [
              367947.773,
              4779106.7525
            ],
            [
              367945.913,
              4779105.4825
            ],
            [
              367940.403,
              4779112.6925
            ],
            [
              367940.023,
              4779113.1925
            ]
          ]
        ]
      },
      "properties": {
        "id": "POT-B004",
        "sector": "POT-S01",
        "source_body": "8093401UN6789S/surface-1"
      }
    },
    {
      "type": "Feature",
      "id": "POT-B005",
      "geometry": {
        "type": "Polygon",
        "coordinates": [
          [
            [
              367945.913,
              4779105.4825
            ],
            [
              367947.773,
              4779106.7525
            ],
            [
              367948.273,
              4779107.1025
            ],
            [
              367951.523,
              4779109.3225
            ],
            [
              367953.653,
              4779104.0025
            ],
            [
              367949.623,
              4779100.6225
            ],
            [
              367947.803,
              4779103.0025
            ],
            [
              367945.913,
              4779105.4825
            ]
          ]
        ]
      },
      "properties": {
        "id": "POT-B005",
        "sector": "POT-S01",
        "source_body": "8093402UN6789S/surface-1"
      }
    },
    {
      "type": "Feature",
      "id": "POT-B006",
      "geometry": {
        "type": "Polygon",
        "coordinates": [
          [
            [
              367940.023,
              4779113.1925
            ],
            [
              367940.403,
              4779112.6925
            ],
            [
              367945.913,
              4779105.4825
            ],
            [
              367947.803,
              4779103.0025
            ],
            [
              367949.623,
              4779100.6225
            ],
            [
              367944.103,
              4779096.1925
            ],
            [
              367943.603,
              4779096.6325
            ],
            [
              367940.303,
              4779099.5525
            ],
            [
              367936.993,
              4779102.4825
            ],
            [
              367933.0425,
              4779105.9825
            ],
            [
              367932.5425,
              4779106.4325
            ],
            [
              367931.2125,
              4779107.4825
            ],
            [
              367939.083,
              4779114.6525
            ],
            [
              367940.023,
              4779113.1925
            ]
          ]
        ]
      },
      "properties": {
        "id": "POT-B006",
        "sector": "POT-S01",
        "source_body": "8093403UN6789S/surface-1"
      }
    },
    {
      "type": "Feature",
      "id": "POT-B007",
      "geometry": {
        "type": "Polygon",
        "coordinates": [
          [
            [
              367930.9825,
              4779097.233
            ],
            [
              367927.7425,
              4779099.393
            ],
            [
              367932.5425,
              4779106.4325
            ],
            [
              367933.0425,
              4779105.9825
            ],
            [
              367936.993,
              4779102.4825
            ],
            [
              367940.303,
              4779099.5525
            ],
            [
              367943.603,
              4779096.6325
            ],
            [
              367944.103,
              4779096.1925
            ],
            [
              367942.263,
              4779094.193
            ],
            [
              367941.823,
              4779093.693
            ],
            [
              367939.823,
              4779091.393
            ],
            [
              367932.8125,
              4779096.013
            ],
            [
              367931.4825,
              4779096.893
            ],
            [
              367930.9825,
              4779097.233
            ]
          ]
        ]
      },
      "properties": {
        "id": "POT-B007",
        "sector": "POT-S01",
        "source_body": "8093404UN6789S/surface-1"
      }
    },
    {
      "type": "Feature",
      "id": "POT-B008",
      "geometry": {
        "type": "Polygon",
        "coordinates": [
          [
            [
              367940.223,
              4779085.5525
            ],
            [
              367935.9525,
              4779087.6525
            ],
            [
              367930.6525,
              4779090.263
            ],
            [
              367927.5825,
              4779091.793
            ],
            [
              367930.9825,
              4779097.233
            ],
            [
              367931.4825,
              4779096.893
            ],
            [
              367932.8125,
              4779096.013
            ],
            [
              367939.823,
              4779091.393
            ],
            [
              367941.823,
              4779093.693
            ],
            [
              367942.263,
              4779094.193
            ],
            [
              367945.783,
              4779091.153
            ],
            [
              367940.223,
              4779085.5525
            ]
          ]
        ]
      },
      "properties": {
        "id": "POT-B008",
        "sector": "POT-S03",
        "source_body": "8093405UN6789S/surface-1"
      }
    },
    {
      "type": "Feature",
      "id": "POT-B009",
      "geometry": {
        "type": "Polygon",
        "coordinates": [
          [
            [
              367936.9725,
              4779078.4025
            ],
            [
              367931.3425,
              4779079.9925
            ],
            [
              367933.6225,
              4779086.2325
            ],
            [
              367942.713,
              4779082.4125
            ],
            [
              367944.983,
              4779081.4725
            ],
            [
              367944.633,
              4779080.9725
            ],
            [
              367942.243,
              4779077.5325
            ],
            [
              367941.903,
              4779077.0325
            ],
            [
              367936.9725,
              4779078.4025
            ]
          ]
        ]
      },
      "properties": {
        "id": "POT-B009",
        "sector": "POT-S03",
        "source_body": "8093406UN6789S/surface-1"
      }
    },
    {
      "type": "Feature",
      "id": "POT-B010",
      "geometry": {
        "type": "Polygon",
        "coordinates": [
          [
            [
              367959.9659,
              4779094.638
            ],
            [
              367962.34795,
              4779094.67515
            ],
            [
              367964.99735,
              4779093.8068
            ],
            [
              367968.0677,
              4779092.8005
            ],
            [
              367968.05505,
              4779092.7872
            ],
            [
              367959.93465,
              4779084.25865
            ],
            [
              367958.3792,
              4779085.46285
            ],
            [
              367952.813,
              4779089.772
            ],
            [
              367958.08295,
              4779094.60865
            ],
            [
              367958.259,
              4779094.6114
            ],
            [
              367958.27205,
              4779094.623
            ],
            [
              367959.9659,
              4779094.638
            ]
          ]
        ]
      },
      "properties": {
        "id": "POT-B010",
        "sector": "POT-S03",
        "source_body": "8093407UN6789S/surface-1"
      }
    },
    {
      "type": "Feature",
      "id": "POT-B011",
      "geometry": {
        "type": "Polygon",
        "coordinates": [
          [
            [
              367941.903,
              4779077.0325
            ],
            [
              367942.243,
              4779077.5325
            ],
            [
              367944.633,
              4779080.9725
            ],
            [
              367944.983,
              4779081.4725
            ],
            [
              367948.333,
              4779079.5825
            ],
            [
              367952.063,
              4779077.4725
            ],
            [
              367948.703,
              4779073.0325
            ],
            [
              367948.203,
              4779073.3225
            ],
            [
              367941.903,
              4779077.0325
            ]
          ]
        ]
      },
      "properties": {
        "id": "POT-B011",
        "sector": "POT-S03",
        "source_body": "8093409UN6789S/surface-1"
      }
    },
    {
      "type": "Feature",
      "id": "POT-B012",
      "geometry": {
        "type": "Polygon",
        "coordinates": [
          [
            [
              367934.5,
              4779079.101
            ],
            [
              367935.479,
              4779078.824
            ],
            [
              367936.9725,
              4779078.4025
            ],
            [
              367941.717,
              4779077.084
            ],
            [
              367941.903,
              4779077.0325
            ],
            [
              367948.203,
              4779073.3225
            ],
            [
              367948.703,
              4779073.0325
            ],
            [
              367945.983,
              4779069.9125
            ],
            [
              367945.483,
              4779070.0525
            ],
            [
              367943.003,
              4779070.7725
            ],
            [
              367941.436,
              4779071.2305
            ],
            [
              367941.1645,
              4779070.0285
            ],
            [
              367940.995,
              4779069.2795
            ],
            [
              367940.0025,
              4779069.504
            ],
            [
              367939.043,
              4779069.721
            ],
            [
              367935.2585,
              4779070.5775
            ],
            [
              367935.084,
              4779070.617
            ],
            [
              367934.655,
              4779070.714
            ],
            [
              367934.2685,
              4779070.8015
            ],
            [
              367933.671,
              4779070.9365
            ],
            [
              367933.972,
              4779079.25
            ],
            [
              367934.5,
              4779079.101
            ]
          ]
        ]
      },
      "properties": {
        "id": "POT-B012",
        "sector": "POT-S04",
        "source_body": "8093410UN6789S/surface-1"
      }
    },
    {
      "type": "Feature",
      "id": "POT-B013",
      "geometry": {
        "type": "Polygon",
        "coordinates": [
          [
            [
              367935.08395,
              4779070.61715
            ],
            [
              367935.25845,
              4779070.57765
            ],
            [
              367939.04295,
              4779069.72115
            ],
            [
              367940.99495,
              4779069.27965
            ],
            [
              367942.35145,
              4779068.97265
            ],
            [
              367941.79995,
              4779066.53465
            ],
            [
              367941.77795,
              4779066.43665
            ],
            [
              367938.46945,
              4779067.18515
            ],
            [
              367935.68195,
              4779067.81565
            ],
            [
              367935.18645,
              4779067.92765
            ],
            [
              367934.75745,
              4779068.02465
            ],
            [
              367933.77345,
              4779068.24765
            ],
            [
              367933.76945,
              4779068.35115
            ],
            [
              367933.67095,
              4779070.93665
            ],
            [
              367934.65495,
              4779070.71415
            ],
            [
              367935.08395,
              4779070.61715
            ]
          ]
        ]
      },
      "properties": {
        "id": "POT-B013",
        "sector": "POT-S04",
        "source_body": "8093411UN6789S/surface-1"
      }
    },
    {
      "type": "Feature",
      "id": "POT-B014",
      "geometry": {
        "type": "Polygon",
        "coordinates": [
          [
            [
              367944.0136,
              4779068.53445
            ],
            [
              367947.62795,
              4779067.57345
            ],
            [
              367948.98105,
              4779067.2137
            ],
            [
              367948.2517,
              4779064.4707
            ],
            [
              367947.1171,
              4779060.2035
            ],
            [
              367946.98895,
              4779059.72145
            ],
            [
              367945.74435,
              4779060.003
            ],
            [
              367942.1384,
              4779060.81875
            ],
            [
              367940.68825,
              4779061.1468
            ],
            [
              367935.7096,
              4779062.2731
            ],
            [
              367935.81995,
              4779062.76095
            ],
            [
              367936.3716,
              4779065.1993
            ],
            [
              367937.2592,
              4779064.9985
            ],
            [
              367941.24835,
              4779064.0961
            ],
            [
              367941.77785,
              4779066.4368
            ],
            [
              367942.86265,
              4779066.19125
            ],
            [
              367943.3758,
              4779068.7041
            ],
            [
              367944.0136,
              4779068.53445
            ]
          ]
        ]
      },
      "properties": {
        "id": "POT-B014",
        "sector": "POT-S04",
        "source_body": "8093412UN6789S/surface-1"
      }
    },
    {
      "type": "Feature",
      "id": "POT-B015",
      "geometry": {
        "type": "Polygon",
        "coordinates": [
          [
            [
              367922.562925981,
              4779070.88363802
            ],
            [
              367932.142925981,
              4779072.31363802
            ],
            [
              367932.332925981,
              4779068.48363802
            ],
            [
              367932.472925981,
              4779061.45363802
            ],
            [
              367925.752925981,
              4779060.26363802
            ],
            [
              367925.132925981,
              4779061.79363802
            ],
            [
              367924.922925981,
              4779062.29363802
            ],
            [
              367924.722925981,
              4779062.79363802
            ],
            [
              367924.262925981,
              4779063.91363802
            ],
            [
              367923.132925981,
              4779068.57363802
            ],
            [
              367922.562925981,
              4779070.88363802
            ]
          ]
        ]
      },
      "properties": {
        "id": "POT-B015",
        "sector": "POT-S04",
        "source_body": "8093418UN6789S/surface-1"
      }
    },
    {
      "type": "Feature",
      "id": "POT-B016",
      "geometry": {
        "type": "Polygon",
        "coordinates": [
          [
            [
              367922.562925981,
              4779070.88363802
            ],
            [
              367920.292925981,
              4779076.88363802
            ],
            [
              367922.652925981,
              4779089.59413802
            ],
            [
              367930.492925981,
              4779087.68363802
            ],
            [
              367929.612925981,
              4779078.04363802
            ],
            [
              367930.652925981,
              4779078.28363802
            ],
            [
              367932.092925981,
              4779073.48363802
            ],
            [
              367932.102925981,
              4779073.15363802
            ],
            [
              367932.142925981,
              4779072.31363802
            ],
            [
              367922.562925981,
              4779070.88363802
            ]
          ]
        ]
      },
      "properties": {
        "id": "POT-B016",
        "sector": "POT-S04",
        "source_body": "8093419UN6789S/surface-1"
      }
    },
    {
      "type": "Feature",
      "id": "POT-B017",
      "geometry": {
        "type": "Polygon",
        "coordinates": [
          [
            [
              367935.18645,
              4779067.92765
            ],
            [
              367935.68195,
              4779067.81565
            ],
            [
              367938.46945,
              4779067.18515
            ],
            [
              367941.77795,
              4779066.43665
            ],
            [
              367941.24845,
              4779064.09615
            ],
            [
              367937.93995,
              4779064.84465
            ],
            [
              367937.25945,
              4779064.99865
            ],
            [
              367936.37145,
              4779065.19915
            ],
            [
              367935.81995,
              4779062.76115
            ],
            [
              367935.70945,
              4779062.27315
            ],
            [
              367934.65645,
              4779062.51165
            ],
            [
              367933.98645,
              4779062.66265
            ],
            [
              367933.96645,
              4779063.18765
            ],
            [
              367933.82295,
              4779066.95465
            ],
            [
              367933.77345,
              4779068.24765
            ],
            [
              367934.75745,
              4779068.02465
            ],
            [
              367935.18645,
              4779067.92765
            ]
          ]
        ]
      },
      "properties": {
        "id": "POT-B017",
        "sector": "POT-S04",
        "source_body": "8093420UN6789S/surface-1"
      }
    },
    {
      "type": "Feature",
      "id": "POT-B018",
      "geometry": {
        "type": "Polygon",
        "coordinates": [
          [
            [
              367936.2635,
              4779166.4335
            ],
            [
              367939.4635,
              4779168.6735
            ],
            [
              367946.9135,
              4779173.7935
            ],
            [
              367950.704,
              4779167.7135
            ],
            [
              367950.984,
              4779167.3135
            ],
            [
              367954.304,
              4779162.0735
            ],
            [
              367943.823,
              4779154.9535
            ],
            [
              367943.343,
              4779154.5935
            ],
            [
              367938.8835,
              4779162.0635
            ],
            [
              367936.2635,
              4779166.4335
            ]
          ]
        ]
      },
      "properties": {
        "id": "POT-B018",
        "sector": "POT-S02",
        "source_body": "8094017UN6789S/surface-1"
      }
    },
    {
      "type": "Feature",
      "id": "POT-B019",
      "geometry": {
        "type": "Polygon",
        "coordinates": [
          [
            [
              367963.896,
              4779106.2115
            ],
            [
              367964.3335,
              4779105.0225
            ],
            [
              367965.7525,
              4779101.1535
            ],
            [
              367967.285,
              4779096.9755
            ],
            [
              367967.5605,
              4779096.2245
            ],
            [
              367964.088,
              4779094.9005
            ],
            [
              367962.503,
              4779095.1525
            ],
            [
              367959.5475,
              4779098.788
            ],
            [
              367957.463,
              4779101.3525
            ],
            [
              367956.8095,
              4779103.5265
            ],
            [
              367955.083,
              4779109.2725
            ],
            [
              367961.8235,
              4779111.8425
            ],
            [
              367963.896,
              4779106.2115
            ]
          ]
        ]
      },
      "properties": {
        "id": "POT-B019",
        "sector": "POT-S03",
        "source_body": "8193001UN6789S/surface-1"
      }
    },
    {
      "type": "Feature",
      "id": "POT-B020",
      "geometry": {
        "type": "Polygon",
        "coordinates": [
          [
            [
              367973.7035,
              4779108.9125
            ],
            [
              367975.2235,
              4779105.1125
            ],
            [
              367973.7756,
              4779104.56125
            ],
            [
              367974.40905,
              4779102.7172
            ],
            [
              367973.5835,
              4779102.5125
            ],
            [
              367968.7035,
              4779101.3125
            ],
            [
              367970.3835,
              4779096.9125
            ],
            [
              367971.1835,
              4779094.8325
            ],
            [
              367970.8635,
              4779093.8325
            ],
            [
              367968.2935,
              4779094.2325
            ],
            [
              367968.1135,
              4779094.7325
            ],
            [
              367967.6235,
              4779096.0525
            ],
            [
              367964.3335,
              4779105.0225
            ],
            [
              367961.8235,
              4779111.8425
            ],
            [
              367971.1335,
              4779115.3825
            ],
            [
              367973.7035,
              4779108.9125
            ]
          ]
        ]
      },
      "properties": {
        "id": "POT-B020",
        "sector": "POT-S03",
        "source_body": "8193002UN6789S/surface-1"
      }
    },
    {
      "type": "Feature",
      "id": "POT-B021",
      "geometry": {
        "type": "Polygon",
        "coordinates": [
          [
            [
              367980.435,
              4779116.6385
            ],
            [
              367980.522,
              4779116.401
            ],
            [
              367981.0005,
              4779115.09
            ],
            [
              367981.2595,
              4779114.3795
            ],
            [
              367981.4985,
              4779113.7245
            ],
            [
              367981.759,
              4779113.011
            ],
            [
              367983.5035,
              4779108.2325
            ],
            [
              367979.3435,
              4779106.6725
            ],
            [
              367975.2235,
              4779105.1125
            ],
            [
              367973.7035,
              4779108.9125
            ],
            [
              367973.2845,
              4779109.967
            ],
            [
              367973.052,
              4779110.553
            ],
            [
              367972.8455,
              4779111.072
            ],
            [
              367972.584,
              4779111.7305
            ],
            [
              367972.0965,
              4779112.958
            ],
            [
              367972.022,
              4779113.145
            ],
            [
              367971.925,
              4779113.3895
            ],
            [
              367971.1335,
              4779115.3825
            ],
            [
              367979.7035,
              4779118.6425
            ],
            [
              367980.3365,
              4779116.909
            ],
            [
              367980.435,
              4779116.6385
            ]
          ]
        ]
      },
      "properties": {
        "id": "POT-B021",
        "sector": "POT-S03",
        "source_body": "8193003UN6789S/surface-1"
      }
    },
    {
      "type": "Feature",
      "id": "POT-B022",
      "geometry": {
        "type": "Polygon",
        "coordinates": [
          [
            [
              367977.9863,
              4779101.6552
            ],
            [
              367980.2497,
              4779102.4386
            ],
            [
              367980.6584,
              4779101.198
            ],
            [
              367982.2166,
              4779096.468
            ],
            [
              367982.625,
              4779095.22825
            ],
            [
              367983.46285,
              4779092.7732
            ],
            [
              367983.49905,
              4779092.66465
            ],
            [
              367983.3035,
              4779092.712
            ],
            [
              367977.65405,
              4779093.1856
            ],
            [
              367977.33,
              4779094.18445
            ],
            [
              367977.15475,
              4779094.69755
            ],
            [
              367975.5523,
              4779099.3892
            ],
            [
              367975.487,
              4779099.57935
            ],
            [
              367975.11525,
              4779100.6615
            ],
            [
              367973.78425,
              4779104.53615
            ],
            [
              367973.7756,
              4779104.56125
            ],
            [
              367975.2235,
              4779105.1125
            ],
            [
              367976.6072,
              4779105.6364
            ],
            [
              367978.9091,
              4779106.508
            ],
            [
              367978.91635,
              4779106.486
            ],
            [
              367979.64795,
              4779104.26525
            ],
            [
              367977.40185,
              4779103.46185
            ],
            [
              367977.79345,
              4779102.233
            ],
            [
              367977.9863,
              4779101.6552
            ]
          ]
        ]
      },
      "properties": {
        "id": "POT-B022",
        "sector": "POT-S03",
        "source_body": "8193004UN6789S/surface-1"
      }
    },
    {
      "type": "Feature",
      "id": "POT-B023",
      "geometry": {
        "type": "Polygon",
        "coordinates": [
          [
            [
              367986.0535,
              4779101.637
            ],
            [
              367986.1435,
              4779101.4125
            ],
            [
              367986.3435,
              4779100.9125
            ],
            [
              367987.8635,
              4779097.9125
            ],
            [
              367987.9935,
              4779097.4125
            ],
            [
              367988.683,
              4779094.7775
            ],
            [
              367989.6235,
              4779091.182
            ],
            [
              367983.49905,
              4779092.66465
            ],
            [
              367983.46285,
              4779092.7732
            ],
            [
              367982.625,
              4779095.22825
            ],
            [
              367981.1281,
              4779099.7722
            ],
            [
              367980.6584,
              4779101.198
            ],
            [
              367981.0235,
              4779101.3125
            ],
            [
              367985.5035,
              4779103.0325
            ],
            [
              367985.6935,
              4779102.5325
            ],
            [
              367986.0535,
              4779101.637
            ]
          ]
        ]
      },
      "properties": {
        "id": "POT-B023",
        "sector": "POT-S03",
        "source_body": "8193005UN6789S/surface-1"
      }
    },
    {
      "type": "Feature",
      "id": "POT-B024",
      "geometry": {
        "type": "Polygon",
        "coordinates": [
          [
            [
              367987.8635,
              4779097.9125
            ],
            [
              367995.984,
              4779099.4725
            ],
            [
              367996.754,
              4779095.7425
            ],
            [
              367997.254,
              4779095.8225
            ],
            [
              367998.154,
              4779095.9825
            ],
            [
              367998.924,
              4779092.622
            ],
            [
              367997.944,
              4779092.482
            ],
            [
              367997.444,
              4779092.412
            ],
            [
              367997.634,
              4779091.492
            ],
            [
              367989.6235,
              4779091.182
            ],
            [
              367987.9935,
              4779097.4125
            ],
            [
              367987.8635,
              4779097.9125
            ]
          ]
        ]
      },
      "properties": {
        "id": "POT-B024",
        "sector": "POT-S03",
        "source_body": "8193006UN6789S/surface-1"
      }
    },
    {
      "type": "Feature",
      "id": "POT-B025",
      "geometry": {
        "type": "Polygon",
        "coordinates": [
          [
            [
              367988.08,
              4779120.2345
            ],
            [
              367989.81,
              4779115.5215
            ],
            [
              367992.3645,
              4779108.5605
            ],
            [
              367993.314,
              4779105.9725
            ],
            [
              367993.504,
              4779105.4725
            ],
            [
              367993.984,
              4779103.8325
            ],
            [
              367994.401,
              4779102.9235
            ],
            [
              367995.984,
              4779099.4725
            ],
            [
              367987.8635,
              4779097.9125
            ],
            [
              367986.7955,
              4779100.0205
            ],
            [
              367986.3435,
              4779100.9125
            ],
            [
              367986.1435,
              4779101.4125
            ],
            [
              367985.6935,
              4779102.5325
            ],
            [
              367985.5035,
              4779103.0325
            ],
            [
              367984.527,
              4779105.571
            ],
            [
              367983.5035,
              4779108.2325
            ],
            [
              367981.9395,
              4779112.5175
            ],
            [
              367980.218,
              4779117.2335
            ],
            [
              367979.7035,
              4779118.6425
            ],
            [
              367987.5635,
              4779121.6425
            ],
            [
              367988.08,
              4779120.2345
            ]
          ]
        ]
      },
      "properties": {
        "id": "POT-B025",
        "sector": "POT-S03",
        "source_body": "8193007UN6789S/surface-1"
      }
    },
    {
      "type": "Feature",
      "id": "POT-B026",
      "geometry": {
        "type": "Polygon",
        "coordinates": [
          [
            [
              367999.494,
              4779117.8025
            ],
            [
              368000.014,
              4779116.0825
            ],
            [
              368000.624,
              4779114.2425
            ],
            [
              368002.654,
              4779108.0725
            ],
            [
              367993.504,
              4779105.4725
            ],
            [
              367993.314,
              4779105.9725
            ],
            [
              367987.5635,
              4779121.6425
            ],
            [
              367991.904,
              4779123.2925
            ],
            [
              367996.754,
              4779125.1425
            ],
            [
              367999.314,
              4779118.2925
            ],
            [
              367999.494,
              4779117.8025
            ]
          ]
        ]
      },
      "properties": {
        "id": "POT-B026",
        "sector": "POT-S03",
        "source_body": "8193008UN6789S/surface-1"
      }
    },
    {
      "type": "Feature",
      "id": "POT-B027",
      "geometry": {
        "type": "Polygon",
        "coordinates": [
          [
            [
              368005.374,
              4779115.5925
            ],
            [
              368007.544,
              4779109.4625
            ],
            [
              368002.654,
              4779108.0725
            ],
            [
              368000.624,
              4779114.2425
            ],
            [
              368000.014,
              4779116.0825
            ],
            [
              367999.494,
              4779117.8025
            ],
            [
              367999.314,
              4779118.2925
            ],
            [
              367996.754,
              4779125.1425
            ],
            [
              368001.384,
              4779126.913
            ],
            [
              368005.374,
              4779115.5925
            ]
          ]
        ]
      },
      "properties": {
        "id": "POT-B027",
        "sector": "POT-S03",
        "source_body": "8193009UN6789S/surface-1"
      }
    },
    {
      "type": "Feature",
      "id": "POT-B028",
      "geometry": {
        "type": "Polygon",
        "coordinates": [
          [
            [
              367984.9565,
              4779087.489
            ],
            [
              367985.253,
              4779085.2
            ],
            [
              367985.4455,
              4779083.7125
            ],
            [
              367982.533,
              4779083.4825
            ],
            [
              367980.949,
              4779083.357
            ],
            [
              367980.5035,
              4779083.322
            ],
            [
              367978.2495,
              4779083.1325
            ],
            [
              367977.9875,
              4779084.6095
            ],
            [
              367977.5835,
              4779086.8895
            ],
            [
              367977.1695,
              4779089.223
            ],
            [
              367978.88,
              4779088.9965
            ],
            [
              367984.8925,
              4779087.985
            ],
            [
              367984.9565,
              4779087.489
            ]
          ]
        ]
      },
      "properties": {
        "id": "POT-B028",
        "sector": "POT-S04",
        "source_body": "8193601UN6789S/surface-1"
      }
    },
    {
      "type": "Feature",
      "id": "POT-B029",
      "geometry": {
        "type": "Polygon",
        "coordinates": [
          [
            [
              367966.6205,
              4779090.6215
            ],
            [
              367977.1695,
              4779089.223
            ],
            [
              367978.2495,
              4779083.1325
            ],
            [
              367977.5335,
              4779083.072
            ],
            [
              367973.9935,
              4779081.352
            ],
            [
              367972.7055,
              4779080.394
            ],
            [
              367972.172,
              4779079.9975
            ],
            [
              367966.44,
              4779085.879
            ],
            [
              367964.1185,
              4779088.2615
            ],
            [
              367963.93005,
              4779088.4549
            ],
            [
              367966.0558,
              4779090.68745
            ],
            [
              367966.6205,
              4779090.6215
            ]
          ]
        ]
      },
      "properties": {
        "id": "POT-B029",
        "sector": "POT-S04",
        "source_body": "8193602UN6789S/surface-1"
      }
    },
    {
      "type": "Feature",
      "id": "POT-B030",
      "geometry": {
        "type": "Polygon",
        "coordinates": [
          [
            [
              367966.44,
              4779085.879
            ],
            [
              367972.172,
              4779079.9975
            ],
            [
              367969.3135,
              4779077.8725
            ],
            [
              367967.6525,
              4779076.0305
            ],
            [
              367961.8765,
              4779081.148
            ],
            [
              367959.4485,
              4779083.299
            ],
            [
              367959.543,
              4779083.4325
            ],
            [
              367959.93465,
              4779084.25865
            ],
            [
              367963.93005,
              4779088.4549
            ],
            [
              367964.1185,
              4779088.2615
            ],
            [
              367966.44,
              4779085.879
            ]
          ]
        ]
      },
      "properties": {
        "id": "POT-B030",
        "sector": "POT-S04",
        "source_body": "8193603UN6789S/surface-1"
      }
    },
    {
      "type": "Feature",
      "id": "POT-B031",
      "geometry": {
        "type": "Polygon",
        "coordinates": [
          [
            [
              367959.296,
              4779083.082
            ],
            [
              367959.4485,
              4779083.299
            ],
            [
              367961.8765,
              4779081.148
            ],
            [
              367967.6525,
              4779076.0305
            ],
            [
              367967.434,
              4779075.788
            ],
            [
              367965.383,
              4779073.5125
            ],
            [
              367964.123,
              4779071.1325
            ],
            [
              367963.863,
              4779070.6325
            ],
            [
              367956.773,
              4779073.9125
            ],
            [
              367954.503,
              4779074.9925
            ],
            [
              367955.463,
              4779076.9925
            ],
            [
              367955.763,
              4779077.4925
            ],
            [
              367958.273,
              4779081.5725
            ],
            [
              367958.583,
              4779082.0725
            ],
            [
              367959.296,
              4779083.082
            ]
          ]
        ]
      },
      "properties": {
        "id": "POT-B031",
        "sector": "POT-S04",
        "source_body": "8193604UN6789S/surface-1"
      }
    },
    {
      "type": "Feature",
      "id": "POT-B032",
      "geometry": {
        "type": "Polygon",
        "coordinates": [
          [
            [
              367959.8175,
              4779066.7625
            ],
            [
              367961.7695,
              4779066.3285
            ],
            [
              367958.3195,
              4779057.014
            ],
            [
              367957.346,
              4779057.242
            ],
            [
              367956.889,
              4779055.295
            ],
            [
              367949.882,
              4779056.939
            ],
            [
              367950.339,
              4779058.886
            ],
            [
              367949.3655,
              4779059.1145
            ],
            [
              367950.3845,
              4779061.8485
            ],
            [
              367952.7795,
              4779068.2735
            ],
            [
              367953.343,
              4779068.1525
            ],
            [
              367959.8175,
              4779066.7625
            ]
          ]
        ]
      },
      "properties": {
        "id": "POT-B032",
        "sector": "POT-S04",
        "source_body": "8193605UN6789S/surface-1"
      }
    },
    {
      "type": "Feature",
      "id": "POT-B033",
      "geometry": {
        "type": "Polygon",
        "coordinates": [
          [
            [
              367964.383,
              4779065.9925
            ],
            [
              367961.983,
              4779066.6325
            ],
            [
              367963.863,
              4779070.6325
            ],
            [
              367964.123,
              4779071.1325
            ],
            [
              367965.383,
              4779073.5125
            ],
            [
              367967.493,
              4779072.5425
            ],
            [
              367964.383,
              4779065.9925
            ]
          ]
        ]
      },
      "properties": {
        "id": "POT-B033",
        "sector": "POT-S04",
        "source_body": "8193605UN6789S/surface-2"
      }
    },
    {
      "type": "Feature",
      "id": "POT-B034",
      "geometry": {
        "type": "Polygon",
        "coordinates": [
          [
            [
              367967.7323,
              4779043.27155
            ],
            [
              367967.83275,
              4779043.3743
            ],
            [
              367969.72025,
              4779045.3049
            ],
            [
              367964.28595,
              4779050.61795
            ],
            [
              367964.00705,
              4779050.8906
            ],
            [
              367966.5238,
              4779053.4648
            ],
            [
              367966.70015,
              4779053.29235
            ],
            [
              367966.8027,
              4779053.1921
            ],
            [
              367973.69925,
              4779046.4494
            ],
            [
              367973.76,
              4779046.39
            ],
            [
              367969.74885,
              4779041.4987
            ],
            [
              367969.6584,
              4779041.38845
            ],
            [
              367967.7323,
              4779043.27155
            ]
          ]
        ]
      },
      "properties": {
        "id": "POT-B034",
        "sector": "POT-S04",
        "source_body": "8193605UN6789S/surface-3"
      }
    },
    {
      "type": "Feature",
      "id": "POT-B035",
      "geometry": {
        "type": "Polygon",
        "coordinates": [
          [
            [
              367967.263,
              4779057.272
            ],
            [
              367968.143,
              4779060.392
            ],
            [
              367963.463,
              4779062.112
            ],
            [
              367964.383,
              4779065.9925
            ],
            [
              367967.493,
              4779072.5425
            ],
            [
              367972.9435,
              4779069.4325
            ],
            [
              367971.253,
              4779062.822
            ],
            [
              367969.983,
              4779057.872
            ],
            [
              367969.623,
              4779056.232
            ],
            [
              367967.263,
              4779057.272
            ]
          ]
        ]
      },
      "properties": {
        "id": "POT-B035",
        "sector": "POT-S04",
        "source_body": "8193606UN6789S/surface-1"
      }
    },
    {
      "type": "Feature",
      "id": "POT-B036",
      "geometry": {
        "type": "Polygon",
        "coordinates": [
          [
            [
              367995.1365,
              4779034.8485
            ],
            [
              367989.3395,
              4779039.379
            ],
            [
              367994.2665,
              4779043.545
            ],
            [
              367999.109,
              4779040.4325
            ],
            [
              367995.6735,
              4779035.5015
            ],
            [
              367995.1365,
              4779034.8485
            ]
          ]
        ]
      },
      "properties": {
        "id": "POT-B036",
        "sector": "POT-S04",
        "source_body": "8193608UN6789S/surface-1"
      }
    },
    {
      "type": "Feature",
      "id": "POT-B037",
      "geometry": {
        "type": "Polygon",
        "coordinates": [
          [
            [
              368002.6665,
              4779038.1965
            ],
            [
              367998.6035,
              4779032.7115
            ],
            [
              367994.6435,
              4779034.2415
            ],
            [
              367995.0235,
              4779034.7115
            ],
            [
              367995.6735,
              4779035.5015
            ],
            [
              367999.109,
              4779040.4325
            ],
            [
              368002.6665,
              4779038.1965
            ]
          ]
        ]
      },
      "properties": {
        "id": "POT-B037",
        "sector": "POT-S04",
        "source_body": "8193609UN6789S/surface-1"
      }
    },
    {
      "type": "Feature",
      "id": "POT-B038",
      "geometry": {
        "type": "Polygon",
        "coordinates": [
          [
            [
              368005.472,
              4779036.312
            ],
            [
              368004.6035,
              4779034.6115
            ],
            [
              368002.8235,
              4779031.1115
            ],
            [
              367998.6035,
              4779032.7115
            ],
            [
              368002.6665,
              4779038.1965
            ],
            [
              368005.472,
              4779036.312
            ]
          ]
        ]
      },
      "properties": {
        "id": "POT-B038",
        "sector": "POT-S04",
        "source_body": "8193610UN6789S/surface-1"
      }
    },
    {
      "type": "Feature",
      "id": "POT-B039",
      "geometry": {
        "type": "Polygon",
        "coordinates": [
          [
            [
              367974.36,
              4779060.42
            ],
            [
              367971.253,
              4779062.822
            ],
            [
              367972.9435,
              4779069.4325
            ],
            [
              367977.7865,
              4779074.6275
            ],
            [
              367984.3025,
              4779067.737
            ],
            [
              367984.9035,
              4779060.262
            ],
            [
              367985.1735,
              4779058.302
            ],
            [
              367985.8025,
              4779054.208
            ],
            [
              367985.8235,
              4779054.072
            ],
            [
              367981.82265,
              4779052.18125
            ],
            [
              367981.731,
              4779054.722
            ],
            [
              367974.36,
              4779060.42
            ]
          ]
        ]
      },
      "properties": {
        "id": "POT-B039",
        "sector": "POT-S04",
        "source_body": "8193618UN6789S/surface-1"
      }
    },
    {
      "type": "Feature",
      "id": "POT-B040",
      "geometry": {
        "type": "Polygon",
        "coordinates": [
          [
            [
              367979.23,
              4779050.31
            ],
            [
              367978.87,
              4779050.72
            ],
            [
              367981.8225,
              4779052.1815
            ],
            [
              367985.8235,
              4779054.072
            ],
            [
              367985.916,
              4779053.954
            ],
            [
              367988.389,
              4779049.133
            ],
            [
              367994.2665,
              4779043.545
            ],
            [
              367989.3395,
              4779039.379
            ],
            [
              367989.121,
              4779039.192
            ],
            [
              367988.381,
              4779039.752
            ],
            [
              367979.23,
              4779050.31
            ]
          ]
        ]
      },
      "properties": {
        "id": "POT-B040",
        "sector": "POT-S04",
        "source_body": "8193619UN6789S/surface-1"
      }
    },
    {
      "type": "Feature",
      "id": "POT-B041",
      "geometry": {
        "type": "Polygon",
        "coordinates": [
          [
            [
              367907.6631,
              4779125.7557
            ],
            [
              367906.5325,
              4779118.3735
            ],
            [
              367906.4822,
              4779118.01415
            ],
            [
              367900.11435,
              4779119.0621
            ],
            [
              367900.498,
              4779127.4225
            ],
            [
              367907.6631,
              4779125.7557
            ]
          ]
        ]
      },
      "properties": {
        "id": "POT-B041",
        "sector": "POT-S01",
        "source_body": "8193801UN6789S/surface-1"
      }
    },
    {
      "type": "Feature",
      "id": "POT-B042",
      "geometry": {
        "type": "Polygon",
        "coordinates": [
          [
            [
              367930.099,
              4779133.162
            ],
            [
              367939.962,
              4779137.195
            ],
            [
              367941.901,
              4779137.9875
            ],
            [
              367942.877,
              4779138.3865
            ],
            [
              367944.604,
              4779135.032
            ],
            [
              367945.683,
              4779132.936
            ],
            [
              367945.743,
              4779132.833
            ],
            [
              367943.7005,
              4779132.009
            ],
            [
              367941.963,
              4779131.3085
            ],
            [
              367927.3685,
              4779122.2125
            ],
            [
              367926.4325,
              4779121.629
            ],
            [
              367926.07,
              4779122.3985
            ],
            [
              367925.8995,
              4779122.76
            ],
            [
              367923.0,
              4779128.911
            ],
            [
              367922.467,
              4779130.0415
            ],
            [
              367930.099,
              4779133.162
            ]
          ]
        ]
      },
      "properties": {
        "id": "POT-B042",
        "sector": "POT-S01",
        "source_body": "8193802UN6789S/surface-1"
      }
    },
    {
      "type": "Feature",
      "id": "POT-B043",
      "geometry": {
        "type": "Polygon",
        "coordinates": [
          [
            [
              367920.554,
              4779111.432
            ],
            [
              367919.819,
              4779115.916
            ],
            [
              367927.68,
              4779119.0595
            ],
            [
              367927.8625,
              4779117.6125
            ],
            [
              367928.553,
              4779112.1065
            ],
            [
              367920.554,
              4779111.432
            ]
          ]
        ]
      },
      "properties": {
        "id": "POT-B043",
        "sector": "POT-S01",
        "source_body": "8193803UN6789S/surface-1"
      }
    },
    {
      "type": "Feature",
      "id": "POT-B044",
      "geometry": {
        "type": "Polygon",
        "coordinates": [
          [
            [
              367929.5425,
              4779119.193
            ],
            [
              367934.903,
              4779124.193
            ],
            [
              367940.743,
              4779128.753
            ],
            [
              367945.793,
              4779122.223
            ],
            [
              367947.483,
              4779120.0325
            ],
            [
              367947.743,
              4779119.7125
            ],
            [
              367939.143,
              4779116.2325
            ],
            [
              367933.423,
              4779113.3725
            ],
            [
              367929.8625,
              4779117.3925
            ],
            [
              367929.5425,
              4779119.193
            ]
          ]
        ]
      },
      "properties": {
        "id": "POT-B044",
        "sector": "POT-S01",
        "source_body": "8193804UN6789S/surface-1"
      }
    },
    {
      "type": "Feature",
      "id": "POT-B045",
      "geometry": {
        "type": "Polygon",
        "coordinates": [
          [
            [
              367945.743,
              4779132.833
            ],
            [
              367953.093,
              4779136.243
            ],
            [
              367953.363,
              4779135.733
            ],
            [
              367955.443,
              4779131.743
            ],
            [
              367956.973,
              4779128.823
            ],
            [
              367958.3935,
              4779126.113
            ],
            [
              367957.883,
              4779125.793
            ],
            [
              367950.203,
              4779120.943
            ],
            [
              367949.703,
              4779120.633
            ],
            [
              367949.203,
              4779121.253
            ],
            [
              367947.483,
              4779123.413
            ],
            [
              367941.783,
              4779130.583
            ],
            [
              367941.457,
              4779130.9931
            ],
            [
              367941.96325,
              4779131.3086
            ],
            [
              367945.743,
              4779132.833
            ]
          ]
        ]
      },
      "properties": {
        "id": "POT-B045",
        "sector": "POT-S01",
        "source_body": "8193805UN6789S/surface-1"
      }
    },
    {
      "type": "Feature",
      "id": "POT-B046",
      "geometry": {
        "type": "Polygon",
        "coordinates": [
          [
            [
              367949.703,
              4779120.633
            ],
            [
              367950.203,
              4779120.943
            ],
            [
              367957.883,
              4779125.793
            ],
            [
              367958.3935,
              4779126.113
            ],
            [
              367958.8635,
              4779125.233
            ],
            [
              367961.0735,
              4779119.0725
            ],
            [
              367961.9235,
              4779116.7025
            ],
            [
              367953.373,
              4779113.4625
            ],
            [
              367949.703,
              4779120.633
            ]
          ]
        ]
      },
      "properties": {
        "id": "POT-B046",
        "sector": "POT-S01",
        "source_body": "8193806UN6789S/surface-1"
      }
    },
    {
      "type": "Feature",
      "id": "POT-B047",
      "geometry": {
        "type": "Polygon",
        "coordinates": [
          [
            [
              367963.0735,
              4779135.193
            ],
            [
              367964.5435,
              4779132.113
            ],
            [
              367964.6235,
              4779131.873
            ],
            [
              367965.2235,
              4779130.233
            ],
            [
              367968.4335,
              4779121.4325
            ],
            [
              367969.1635,
              4779119.4325
            ],
            [
              367961.9235,
              4779116.7025
            ],
            [
              367961.0735,
              4779119.0725
            ],
            [
              367958.8635,
              4779125.233
            ],
            [
              367958.3935,
              4779126.113
            ],
            [
              367956.973,
              4779128.823
            ],
            [
              367955.443,
              4779131.743
            ],
            [
              367953.363,
              4779135.733
            ],
            [
              367953.093,
              4779136.243
            ],
            [
              367955.8135,
              4779137.643
            ],
            [
              367960.7135,
              4779140.163
            ],
            [
              367960.9335,
              4779139.693
            ],
            [
              367961.8235,
              4779137.833
            ],
            [
              367963.0735,
              4779135.193
            ]
          ]
        ]
      },
      "properties": {
        "id": "POT-B047",
        "sector": "POT-S01",
        "source_body": "8193807UN6789S/surface-1"
      }
    },
    {
      "type": "Feature",
      "id": "POT-B048",
      "geometry": {
        "type": "Polygon",
        "coordinates": [
          [
            [
              367968.6835,
              4779141.403
            ],
            [
              367970.7835,
              4779137.793
            ],
            [
              367972.3335,
              4779135.143
            ],
            [
              367973.1035,
              4779133.833
            ],
            [
              367973.1735,
              4779133.663
            ],
            [
              367976.1835,
              4779126.873
            ],
            [
              367978.0035,
              4779122.7725
            ],
            [
              367969.1635,
              4779119.4325
            ],
            [
              367968.4335,
              4779121.4325
            ],
            [
              367965.2235,
              4779130.233
            ],
            [
              367964.6235,
              4779131.873
            ],
            [
              367964.5435,
              4779132.113
            ],
            [
              367963.0735,
              4779135.193
            ],
            [
              367961.8235,
              4779137.833
            ],
            [
              367960.9335,
              4779139.693
            ],
            [
              367960.7135,
              4779140.163
            ],
            [
              367967.3935,
              4779143.603
            ],
            [
              367967.6735,
              4779143.133
            ],
            [
              367968.6835,
              4779141.403
            ]
          ]
        ]
      },
      "properties": {
        "id": "POT-B048",
        "sector": "POT-S01",
        "source_body": "8193808UN6789S/surface-1"
      }
    },
    {
      "type": "Feature",
      "id": "POT-B049",
      "geometry": {
        "type": "Polygon",
        "coordinates": [
          [
            [
              367976.8575,
              4779142.0985
            ],
            [
              367977.4535,
              4779141.023
            ],
            [
              367977.6285,
              4779140.709
            ],
            [
              367978.309,
              4779139.4895
            ],
            [
              367978.9435,
              4779138.353
            ],
            [
              367980.906,
              4779133.4385
            ],
            [
              367982.4935,
              4779129.463
            ],
            [
              367984.2235,
              4779125.123
            ],
            [
              367978.0035,
              4779122.7725
            ],
            [
              367976.1835,
              4779126.873
            ],
            [
              367974.4515,
              4779130.7805
            ],
            [
              367973.1735,
              4779133.663
            ],
            [
              367973.1035,
              4779133.833
            ],
            [
              367972.3335,
              4779135.143
            ],
            [
              367971.6325,
              4779136.3415
            ],
            [
              367970.9605,
              4779137.4905
            ],
            [
              367970.7835,
              4779137.793
            ],
            [
              367970.2095,
              4779138.7795
            ],
            [
              367968.6835,
              4779141.403
            ],
            [
              367967.6735,
              4779143.133
            ],
            [
              367967.3935,
              4779143.603
            ],
            [
              367974.1035,
              4779147.053
            ],
            [
              367974.3735,
              4779146.573
            ],
            [
              367975.2935,
              4779144.923
            ],
            [
              367976.8575,
              4779142.0985
            ]
          ]
        ]
      },
      "properties": {
        "id": "POT-B049",
        "sector": "POT-S01",
        "source_body": "8193809UN6789S/surface-1"
      }
    },
    {
      "type": "Feature",
      "id": "POT-B050",
      "geometry": {
        "type": "Polygon",
        "coordinates": [
          [
            [
              367982.2745,
              4779147.983
            ],
            [
              367983.5245,
              4779147.023
            ],
            [
              367984.2945,
              4779145.133
            ],
            [
              367990.854,
              4779129.093
            ],
            [
              367989.864,
              4779128.793
            ],
            [
              367990.334,
              4779127.433
            ],
            [
              367984.2235,
              4779125.123
            ],
            [
              367982.4935,
              4779129.463
            ],
            [
              367978.9435,
              4779138.353
            ],
            [
              367977.4535,
              4779141.023
            ],
            [
              367975.2935,
              4779144.923
            ],
            [
              367974.3735,
              4779146.573
            ],
            [
              367974.1035,
              4779147.053
            ],
            [
              367978.344,
              4779149.233
            ],
            [
              367979.714,
              4779149.943
            ],
            [
              367982.2745,
              4779147.983
            ]
          ]
        ]
      },
      "properties": {
        "id": "POT-B050",
        "sector": "POT-S01",
        "source_body": "8193810UN6789S/surface-1"
      }
    },
    {
      "type": "Feature",
      "id": "POT-B051",
      "geometry": {
        "type": "Polygon",
        "coordinates": [
          [
            [
              367913.681,
              4779124.518
            ],
            [
              367923.0,
              4779128.911
            ],
            [
              367925.8995,
              4779122.76
            ],
            [
              367926.07,
              4779122.3985
            ],
            [
              367925.663,
              4779122.2065
            ],
            [
              367926.388,
              4779120.6685
            ],
            [
              367921.911,
              4779118.558
            ],
            [
              367919.649,
              4779117.492
            ],
            [
              367918.92,
              4779119.03
            ],
            [
              367917.52,
              4779122.01
            ],
            [
              367914.3965,
              4779120.5435
            ],
            [
              367912.7335,
              4779124.0715
            ],
            [
              367913.681,
              4779124.518
            ]
          ]
        ]
      },
      "properties": {
        "id": "POT-B051",
        "sector": "POT-S01",
        "source_body": "8193811UN6789S/surface-1"
      }
    },
    {
      "type": "Feature",
      "id": "POT-B052",
      "geometry": {
        "type": "Polygon",
        "coordinates": [
          [
            [
              367977.2245,
              4779219.7945
            ],
            [
              367975.9045,
              4779222.7545
            ],
            [
              367983.6145,
              4779227.794
            ],
            [
              367987.7645,
              4779220.554
            ],
            [
              367988.0545,
              4779220.054
            ],
            [
              367987.5545,
              4779219.694
            ],
            [
              367979.5845,
              4779213.9945
            ],
            [
              367977.8845,
              4779212.9645
            ],
            [
              367977.0645,
              4779212.474
            ],
            [
              367973.9045,
              4779218.1545
            ],
            [
              367977.2245,
              4779219.7945
            ]
          ]
        ]
      },
      "properties": {
        "id": "POT-B052",
        "sector": "POT-S02",
        "source_body": "8194103UN6789S/surface-1"
      }
    },
    {
      "type": "Feature",
      "id": "POT-B053",
      "geometry": {
        "type": "Polygon",
        "coordinates": [
          [
            [
              367990.826,
              4779227.8169
            ],
            [
              367991.686,
              4779226.081
            ],
            [
              367991.7145,
              4779226.024
            ],
            [
              367992.9445,
              4779223.554
            ],
            [
              367990.5045,
              4779221.8085
            ],
            [
              367989.654,
              4779223.5145
            ],
            [
              367987.107,
              4779221.701
            ],
            [
              367985.6034,
              4779224.3242
            ],
            [
              367983.6145,
              4779227.794
            ],
            [
              367989.0445,
              4779231.394
            ],
            [
              367990.6045,
              4779228.264
            ],
            [
              367990.826,
              4779227.8169
            ]
          ]
        ]
      },
      "properties": {
        "id": "POT-B053",
        "sector": "POT-S02",
        "source_body": "8194104UN6789S/surface-1"
      }
    },
    {
      "type": "Feature",
      "id": "POT-B054",
      "geometry": {
        "type": "Polygon",
        "coordinates": [
          [
            [
              367998.1625,
              4779230.4915
            ],
            [
              367998.255,
              4779230.314
            ],
            [
              368000.465,
              4779226.074
            ],
            [
              367997.494,
              4779224.224
            ],
            [
              367995.236,
              4779228.5715
            ],
            [
              367991.6255,
              4779226.203
            ],
            [
              367990.6045,
              4779228.264
            ],
            [
              367989.0445,
              4779231.394
            ],
            [
              367994.97845,
              4779235.3005
            ],
            [
              367998.1625,
              4779230.4915
            ]
          ]
        ]
      },
      "properties": {
        "id": "POT-B054",
        "sector": "POT-S02",
        "source_body": "8194105UN6789S/surface-1"
      }
    },
    {
      "type": "Feature",
      "id": "POT-B055",
      "geometry": {
        "type": "Polygon",
        "coordinates": [
          [
            [
              367982.9845,
              4779214.3945
            ],
            [
              367989.0445,
              4779218.514
            ],
            [
              367993.8345,
              4779221.764
            ],
            [
              367996.865,
              4779223.834
            ],
            [
              368005.985,
              4779210.3935
            ],
            [
              368002.595,
              4779208.0835
            ],
            [
              368002.065,
              4779207.724
            ],
            [
              368001.595,
              4779207.404
            ],
            [
              367997.4245,
              4779204.554
            ],
            [
              367996.9745,
              4779204.244
            ],
            [
              367996.4245,
              4779203.874
            ],
            [
              367992.1445,
              4779200.954
            ],
            [
              367982.9845,
              4779214.3945
            ]
          ]
        ]
      },
      "properties": {
        "id": "POT-B055",
        "sector": "POT-S02",
        "source_body": "8194106UN6789S/surface-1"
      }
    },
    {
      "type": "Feature",
      "id": "POT-B056",
      "geometry": {
        "type": "Polygon",
        "coordinates": [
          [
            [
              368015.845,
              4779166.1235
            ],
            [
              368015.625,
              4779166.6735
            ],
            [
              368014.145,
              4779166.1135
            ],
            [
              368012.865,
              4779169.3135
            ],
            [
              368017.665,
              4779171.3135
            ],
            [
              368019.225,
              4779167.4135
            ],
            [
              368020.305,
              4779164.6335
            ],
            [
              368016.865,
              4779163.5135
            ],
            [
              368015.845,
              4779166.1235
            ]
          ]
        ]
      },
      "properties": {
        "id": "POT-B056",
        "sector": "POT-S02",
        "source_body": "8194503UN6789S/surface-1"
      }
    },
    {
      "type": "Feature",
      "id": "POT-B057",
      "geometry": {
        "type": "Polygon",
        "coordinates": [
          [
            [
              367975.2445,
              4779207.914
            ],
            [
              367974.0145,
              4779207.354
            ],
            [
              367959.654,
              4779200.794
            ],
            [
              367961.944,
              4779221.9945
            ],
            [
              367966.4545,
              4779222.2845
            ],
            [
              367968.5045,
              4779222.4245
            ],
            [
              367975.2445,
              4779207.914
            ]
          ]
        ]
      },
      "properties": {
        "id": "POT-B057",
        "sector": "POT-S02",
        "source_body": "8194702UN6789S/surface-1"
      }
    },
    {
      "type": "Feature",
      "id": "POT-B058",
      "geometry": {
        "type": "Polygon",
        "coordinates": [
          [
            [
              367977.7675,
              4779188.3565
            ],
            [
              367971.3485,
              4779185.4655
            ],
            [
              367967.704,
              4779183.824
            ],
            [
              367966.914,
              4779185.484
            ],
            [
              367959.654,
              4779200.794
            ],
            [
              367974.0145,
              4779207.354
            ],
            [
              367975.2445,
              4779207.914
            ],
            [
              367983.1945,
              4779190.804
            ],
            [
              367980.2045,
              4779189.454
            ],
            [
              367977.7675,
              4779188.3565
            ]
          ]
        ]
      },
      "properties": {
        "id": "POT-B058",
        "sector": "POT-S02",
        "source_body": "8194703UN6789S/surface-1"
      }
    }
  ],
  "coordinate_reference_system": "EPSG:25830",
  "warning": "Metric reference product, not RFC7946 longitude/latitude GeoJSON."
}
