{
  "type": "FeatureCollection",
  "features": [
    {
      "type": "Feature",
      "id": "POT-CORE-00",
      "geometry": {
        "type": "Polygon",
        "coordinates": [
          [
            [
              367946.98895,
              4779059.72145
            ],
            [
              367945.74435,
              4779060.003
            ],
            [
              367942.1384,
              4779060.81875
            ],
            [
              367940.68825,
              4779061.1468
            ],
            [
              367935.7096,
              4779062.2731
            ],
            [
              367934.6562,
              4779062.5114
            ],
            [
              367934.53983725404,
              4779061.261889531
            ],
            [
              367932.4764293999,
              4779061.261889531
            ],
            [
              367932.472925981,
              4779061.45363802
            ],
            [
              367925.752925981,
              4779060.26363802
            ],
            [
              367925.34840576065,
              4779061.261889531
            ],
            [
              367920.1524553847,
              4779061.261889531
            ],
            [
              367905.74088456563,
              4779080.47731729
            ],
            [
              367906.062,
              4779080.5925
            ],
            [
              367906.112,
              4779081.1525
            ],
            [
              367906.172,
              4779081.7925
            ],
            [
              367906.232,
              4779082.3925
            ],
            [
              367906.3535,
              4779085.83
            ],
            [
              367903.9467635906,
              4779085.783233759
            ],
            [
              367903.9467593466,
              4779085.783249674
            ],
            [
              367900.075,
              4779085.708
            ],
            [
              367900.076,
              4779085.98
            ],
            [
              367900.0785,
              4779086.557
            ],
            [
              367900.095,
              4779091.183
            ],
            [
              367900.097,
              4779091.72
            ],
            [
              367902.3636259265,
              4779091.72
            ],
            [
              367903.012,
              4779091.72
            ],
            [
              367906.523,
              4779091.72
            ],
            [
              367906.551,
              4779092.941
            ],
            [
              367906.5325,
              4779098.813
            ],
            [
              367905.662,
              4779098.733
            ],
            [
              367900.0725,
              4779098.2325
            ],
            [
              367900.0724959303,
              4779098.232643923
            ],
            [
              367899.982,
              4779101.433
            ],
            [
              367899.9604894804,
              4779102.221719053
            ],
            [
              367897.1524553847,
              4779116.261889531
            ],
            [
              367890.1524553847,
              4779146.261889531
            ],
            [
              367919.1524553847,
              4779146.261889531
            ],
            [
              367940.01410291536,
              4779160.169654552
            ],
            [
              367938.8835,
              4779162.0635
            ],
            [
              367936.2635,
              4779166.4335
            ],
            [
              367939.4635,
              4779168.6735
            ],
            [
              367946.9135,
              4779173.7935
            ],
            [
              367950.704,
              4779167.7135
            ],
            [
              367950.90314080066,
              4779167.429013142
            ],
            [
              367958.1524553847,
              4779172.261889531
            ],
            [
              367958.1524553847,
              4779190.494158898
            ],
            [
              367956.8715323369,
              4779192.254087565
            ],
            [
              367956.86566789565,
              4779192.26303722
            ],
            [
              367956.85913416476,
              4779192.27151061
            ],
            [
              367956.8387857628,
              4779192.304061726
            ],
            [
              367956.81774597865,
              4779192.336170293
            ],
            [
              367956.8127869958,
              4779192.3456516685
            ],
            [
              367956.8071152642,
              4779192.354724675
            ],
            [
              367956.79005541257,
              4779192.389113541
            ],
            [
              367956.77226413065,
              4779192.423129756
            ],
            [
              367956.768258364,
              4779192.433051541
            ],
            [
              367956.7635032535,
              4779192.442636786
            ],
            [
              367956.749896248,
              4779192.478532217
            ],
            [
              367956.7355248081,
              4779192.514128486
            ],
            [
              367956.73251083534,
              4779192.524395129
            ],
            [
              367956.7287181403,
              4779192.5344003
            ],
            [
              367956.7186950238,
              4779192.571456606
            ],
            [
              367956.7078818307,
              4779192.608290115
            ],
            [
              367956.705888678,
              4779192.618802743
            ],
            [
              367956.70309492416,
              4779192.629131486
            ],
            [
              367956.6967522247,
              4779192.666991792
            ],
            [
              367956.6896014154,
              4779192.704707816
            ],
            [
              367956.688648278,
              4779192.715365185
            ],
            [
              367956.68688037066,
              4779192.7259180285
            ],
            [
              367956.684279172,
              4779192.76421772
            ],
            [
              367956.68085961265,
              4779192.802453034
            ],
            [
              367956.6809556697,
              4779192.813152509
            ],
            [
              367956.68023063487,
              4779192.823827823
            ],
            [
              367956.68139598786,
              4779192.862198052
            ],
            [
              367956.68174061074,
              4779192.900584428
            ],
            [
              367956.68288493727,
              4779192.911222966
            ],
            [
              367956.6832097573,
              4779192.921917941
            ],
            [
              367959.0554892442,
              4779222.718089851
            ],
            [
              367959.0680685343,
              4779222.815415634
            ],
            [
              367959.0901268467,
              4779222.911039782
            ],
            [
              367959.1214517478,
              4779223.004041379
            ],
            [
              367959.16174156155,
              4779223.093524772
            ],
            [
              367959.2106082751,
              4779223.178628186
            ],
            [
              367959.26758127526,
              4779223.258532027
            ],
            [
              367959.33211188094,
              4779223.332466779
            ],
            [
              367959.4035786271,
              4779223.39972041
            ],
            [
              367959.4812932499,
              4779223.45964523
            ],
            [
              367959.56450731505,
              4779223.511664131
            ],
            [
              367959.6524194256,
              4779223.5552761415
            ],
            [
              367959.7441829399,
              4779223.590061255
            ],
            [
              367959.83891412505,
              4779223.615684471
            ],
            [
              367959.9357006681,
              4779223.631899024
            ],
            [
              367960.0336104616,
              4779223.63854876
            ],
            [
              367960.1317005808,
              4779223.635569638
            ],
            [
              367960.2290263642,
              4779223.622990347
            ],
            [
              367960.3246505113,
              4779223.600932035
            ],
            [
              367960.41765210935,
              4779223.569607134
            ],
            [
              367960.507135502,
              4779223.52931732
            ],
            [
              367960.5922389153,
              4779223.480450607
            ],
            [
              367960.672142757,
              4779223.423477606
            ],
            [
              367960.7460775092,
              4779223.3589470005
            ],
            [
              367960.8133311399,
              4779223.287480255
            ],
            [
              367960.87325596,
              4779223.209765632
            ],
            [
              367960.9252748606,
              4779223.126551567
            ],
            [
              367960.96888687124,
              4779223.038639456
            ],
            [
              367961.0036719845,
              4779222.946875942
            ],
            [
              367961.0292952006,
              4779222.852144756
            ],
            [
              367961.0455097541,
              4779222.755358214
            ],
            [
              367961.0521594899,
              4779222.65744842
            ],
            [
              367961.04918036744,
              4779222.559358301
            ],
            [
              367959.7837979825,
              4779206.66597336
            ],
            [
              367960.3837743634,
              4779207.5501490785
            ],
            [
              367961.944,
              4779221.9945
            ],
            [
              367966.4545,
              4779222.2845
            ],
            [
              367968.5045,
              4779222.4245
            ],
            [
              367969.3060727953,
              4779220.6987994
            ],
            [
              367970.8294479194,
              4779222.943773267
            ],
            [
              367971.2945,
              4779221.7945
            ],
            [
              367972.0945,
              4779219.8345
            ],
            [
              367972.7045,
              4779220.3045
            ],
            [
              367975.9045,
              4779222.7545
            ],
            [
              367983.6145,
              4779227.794
            ],
            [
              367989.0445,
              4779231.394
            ],
            [
              367994.97845,
              4779235.3005
            ],
            [
              367998.1625,
              4779230.4915
            ],
            [
              367998.255,
              4779230.314
            ],
            [
              367998.5519411398,
              4779229.744302972
            ],
            [
              368011.1524553847,
              4779228.261889531
            ],
            [
              368013.0224779432,
              4779208.314982241
            ],
            [
              368008.8615,
              4779202.2063
            ],
            [
              368013.217,
              4779197.8508
            ],
            [
              368013.2170978199,
              4779197.85086733
            ],
            [
              368014.1180441564,
              4779196.628942634
            ],
            [
              368014.1524553847,
              4779196.261889531
            ],
            [
              368015.1524553847,
              4779180.261889531
            ],
            [
              368026.84766245657,
              4779161.744478335
            ],
            [
              368033.10063225054,
              4779163.706419432
            ],
            [
              368041.99263626325,
              4779162.974218094
            ],
            [
              368053.1524553847,
              4779164.261889531
            ],
            [
              368054.0560662864,
              4779153.418558711
            ],
            [
              368048.2355,
              4779151.223
            ],
            [
              368047.36655,
              4779150.88205
            ],
            [
              368040.1055,
              4779148.033
            ],
            [
              368031.345,
              4779144.653
            ],
            [
              368027.015,
              4779142.973
            ],
            [
              368021.415,
              4779140.823
            ],
            [
              368016.595,
              4779138.963
            ],
            [
              368016.345,
              4779138.873
            ],
            [
              368016.46190184867,
              4779138.5562337
            ],
            [
              368010.1524553847,
              4779136.261889531
            ],
            [
              368009.3788506105,
              4779134.005542273
            ],
            [
              368007.564,
              4779133.243
            ],
            [
              368001.884,
              4779130.873
            ],
            [
              368003.024,
              4779127.523
            ],
            [
              368001.384,
              4779126.913
            ],
            [
              368005.374,
              4779115.5925
            ],
            [
              368007.544,
              4779109.4625
            ],
            [
              368002.654,
              4779108.0725
            ],
            [
              368000.2536726048,
              4779107.390439756
            ],
            [
              368000.2536726048,
              4779107.390439756
            ],
            [
              367998.1524553847,
              4779101.261889531
            ],
            [
              367996.54420385155,
              4779096.7587852385
            ],
            [
              367996.754,
              4779095.7425
            ],
            [
              367997.254,
              4779095.8225
            ],
            [
              367998.154,
              4779095.9825
            ],
            [
              367998.924,
              4779092.622
            ],
            [
              367997.944,
              4779092.482
            ],
            [
              367997.444,
              4779092.412
            ],
            [
              367997.634,
              4779091.492
            ],
            [
              367994.62157394475,
              4779091.3754215
            ],
            [
              367993.1524553847,
              4779087.261889531
            ],
            [
              367979.1524553847,
              4779078.261889531
            ],
            [
              367985.89828475117,
              4779068.624990436
            ],
            [
              367985.1035,
              4779068.552
            ],
            [
              367984.2435,
              4779068.472
            ],
            [
              367984.9035,
              4779060.262
            ],
            [
              367986.0535,
              4779060.442
            ],
            [
              367986.1524553847,
              4779060.08226164
            ],
            [
              367986.1524553847,
              4779059.261889531
            ],
            [
              367989.1524553847,
              4779049.261889531
            ],
            [
              367997.2457661341,
              4779045.002252295
            ],
            [
              367997.9435,
              4779044.342
            ],
            [
              367998.18188887514,
              4779044.509556116
            ],
            [
              368008.1524553847,
              4779039.261889531
            ],
            [
              368009.8706598124,
              4779034.107276248
            ],
            [
              368009.24049021164,
              4779033.353086049
            ],
            [
              368004.21889081696,
              4779033.855245988
            ],
            [
              368002.8235,
              4779031.1115
            ],
            [
              367998.6035,
              4779032.7115
            ],
            [
              367994.6435,
              4779034.2415
            ],
            [
              367995.0235,
              4779034.7115
            ],
            [
              367995.0716114564,
              4779034.769973924
            ],
            [
              367980.1524553847,
              4779036.261889531
            ],
            [
              367971.30530834006,
              4779043.396685535
            ],
            [
              367969.74885,
              4779041.4987
            ],
            [
              367969.6584,
              4779041.38845
            ],
            [
              367967.7323,
              4779043.27155
            ],
            [
              367967.83275,
              4779043.3743
            ],
            [
              367969.37588526274,
              4779044.952671887
            ],
            [
              367956.4128798524,
              4779055.406708509
            ],
            [
              367949.882,
              4779056.939
            ],
            [
              367950.339,
              4779058.886
            ],
            [
              367949.3655,
              4779059.1145
            ],
            [
              367949.93165388255,
              4779060.633503646
            ],
            [
              367949.1524553847,
              4779061.261889531
            ],
            [
              367947.3985137519,
              4779061.261889531
            ],
            [
              367947.1171,
              4779060.2035
            ],
            [
              367946.98895,
              4779059.72145
            ]
          ]
        ]
      },
      "properties": {
        "id": "POT-CORE-00",
        "building_count": 58,
        "area_m2": 14886.5817,
        "bounds_local": [
          -95.0,
          -187.1503895316273,
          68.90361090165297,
          17.03861046861857
        ],
        "dimensions_m": [
          163.9036,
          204.189
        ],
        "count_gt_100": 22,
        "count_gt_200": 4,
        "count_gt_400": 0,
        "footprint_area_min_median_max_m2": [
          18.101,
          88.9526175,
          321.265442
        ],
        "walkable_axis_length_m": 1026.1549,
        "network_components": 11,
        "largest_component_node_count": 88,
        "path_diameter_m": 367.7738,
        "diameter_osm_endpoints": [
          "clip:160579904:(33.71310871455353, -36.98192878533155):(30.245465118188225, -38.38865310379802)",
          "clip:1563886624:(-24.590685735223815, 10.77540952898562):(-25.02075480389007, 5.3736801061982)"
        ],
        "traversal_minutes_at_1_4_m_s": 4.378,
        "traversal_minutes_at_1_8_m_s": 3.405,
        "network_terrain_sample_range_m": [
          280.0,
          307.157
        ],
        "closed_network_face_count": 3,
        "intersected_cadastral_parcel_count": 63,
        "full_cadastral_parcel_count": 53,
        "source_numerical_sliver_areas_m2": [
          2.706168622523819e-15,
          6.132059746833239e-07,
          7.552822641594681e-05
        ],
        "sector_counts": {
          "POT-S01": 15,
          "POT-S02": 8,
          "POT-S03": 13,
          "POT-S04": 22
        },
        "photo_receipts": 57,
        "production_ready_buildings": 0,
        "claim_limit": "Counts are unchanged source exterior components; source conflicts and completeness must be resolved before independent PASS."
      }
    }
  ],
  "coordinate_reference_system": "EPSG:25830",
  "warning": "Metric reference product, not RFC7946 longitude/latitude GeoJSON."
}
