{
  "type": "FeatureCollection",
  "features": [
    {
      "type": "Feature",
      "id": "POT-S01",
      "geometry": {
        "type": "GeometryCollection",
        "geometries": [
          {
            "type": "Polygon",
            "coordinates": [
              [
                [
                  367949.623,
                  4779100.6225
                ],
                [
                  367944.103,
                  4779096.1925
                ],
                [
                  367942.263,
                  4779094.193
                ],
                [
                  367941.823,
                  4779093.693
                ],
                [
                  367939.823,
                  4779091.393
                ],
                [
                  367932.8125,
                  4779096.013
                ],
                [
                  367931.4825,
                  4779096.893
                ],
                [
                  367930.9825,
                  4779097.233
                ],
                [
                  367927.7425,
                  4779099.393
                ],
                [
                  367932.5425,
                  4779106.4325
                ],
                [
                  367927.9051844613,
                  4779099.631586931
                ],
                [
                  367924.00445107825,
                  4779098.702840887
                ],
                [
                  367925.7125,
                  4779104.413
                ],
                [
                  367910.1525,
                  4779108.753
                ],
                [
                  367910.0225,
                  4779108.253
                ],
                [
                  367909.2369148751,
                  4779105.216411344
                ],
                [
                  367909.1524553847,
                  4779105.261889531
                ],
                [
                  367906.37437912304,
                  4779105.50833178
                ],
                [
                  367906.3125,
                  4779108.033
                ],
                [
                  367906.2225,
                  4779112.113
                ],
                [
                  367900.652,
                  4779111.973
                ],
                [
                  367899.702,
                  4779111.953
                ],
                [
                  367899.802,
                  4779108.033
                ],
                [
                  367899.855082095,
                  4779106.086656516
                ],
                [
                  367899.17544389045,
                  4779106.146947003
                ],
                [
                  367897.1524553847,
                  4779116.261889531
                ],
                [
                  367891.6938162258,
                  4779139.656057355
                ],
                [
                  367898.6150401617,
                  4779140.201365908
                ],
                [
                  367899.28764927265,
                  4779143.500592708
                ],
                [
                  367904.18687384116,
                  4779142.501794116
                ],
                [
                  367903.80119044357,
                  4779140.609971687
                ],
                [
                  367950.1524553847,
                  4779144.261889531
                ],
                [
                  367990.1524553847,
                  4779154.261889531
                ],
                [
                  368002.1524553847,
                  4779139.261889531
                ],
                [
                  368029.7511276574,
                  4779144.034592255
                ],
                [
                  368031.345,
                  4779144.653
                ],
                [
                  368027.015,
                  4779142.973
                ],
                [
                  368021.415,
                  4779140.823
                ],
                [
                  368016.595,
                  4779138.963
                ],
                [
                  368016.345,
                  4779138.873
                ],
                [
                  368016.46190184867,
                  4779138.5562337
                ],
                [
                  368010.1524553847,
                  4779136.261889531
                ],
                [
                  368009.3788506105,
                  4779134.005542273
                ],
                [
                  368007.564,
                  4779133.243
                ],
                [
                  368001.884,
                  4779130.873
                ],
                [
                  368003.024,
                  4779127.523
                ],
                [
                  368001.384,
                  4779126.913
                ],
                [
                  367996.754,
                  4779125.1425
                ],
                [
                  367991.904,
                  4779123.2925
                ],
                [
                  367987.5635,
                  4779121.6425
                ],
                [
                  367979.7035,
                  4779118.6425
                ],
                [
                  367971.1335,
                  4779115.3825
                ],
                [
                  367961.8235,
                  4779111.8425
                ],
                [
                  367958.57579450024,
                  4779110.604223443
                ],
                [
                  367955.1524553847,
                  4779110.261889531
                ],
                [
                  367951.905277884,
                  4779108.3677026555
                ],
                [
                  367951.523,
                  4779109.3225
                ],
                [
                  367953.653,
                  4779104.0025
                ],
                [
                  367949.623,
                  4779100.6225
                ]
              ]
            ]
          },
          {
            "type": "Polygon",
            "coordinates": [
              [
                [
                  367981.79049550777,
                  4779112.925693544
                ],
                [
                  367981.7901554739,
                  4779112.92565954
                ],
                [
                  367981.759,
                  4779113.011
                ],
                [
                  367981.4985,
                  4779113.7245
                ],
                [
                  367981.2595,
                  4779114.3795
                ],
                [
                  367981.03665292595,
                  4779114.99082373
                ],
                [
                  367981.79049550777,
                  4779112.925693544
                ]
              ]
            ]
          },
          {
            "type": "Polygon",
            "coordinates": [
              [
                [
                  367980.435,
                  4779116.6385
                ],
                [
                  367980.3554481147,
                  4779116.856964822
                ],
                [
                  367980.4907781853,
                  4779116.486231965
                ],
                [
                  367980.435,
                  4779116.6385
                ]
              ]
            ]
          },
          {
            "type": "Polygon",
            "coordinates": [
              [
                [
                  367987.5635,
                  4779121.6425
                ],
                [
                  367988.8589762014,
                  4779118.112352695
                ],
                [
                  367988.08,
                  4779120.2345
                ],
                [
                  367987.5635,
                  4779121.6425
                ]
              ]
            ]
          },
          {
            "type": "LineString",
            "coordinates": [
              [
                368005.479459199,
                4779115.2945899125
              ],
              [
                368005.374,
                4779115.5925
              ]
            ]
          }
        ]
      },
      "properties": {
        "id": "POT-S01"
      }
    }
  ],
  "coordinate_reference_system": "EPSG:25830",
  "warning": "Metric reference product, not RFC7946 longitude/latitude GeoJSON."
}
